NORAD_CAT_ID,OBJECT_NAME,OBJECT_TYPE,EPOCH,MEAN_MOTION,ECCENTRICITY,INCLINATION,RA_OF_ASC_NODE,ARG_OF_PERICENTER,MEAN_ANOMALY,BSTAR,MEAN_MOTION_DOT,MEAN_MOTION_DDOT,TLE_LINE0,TLE_LINE1,TLE_LINE2,SEMIMAJOR_AXIS,PERIOD,APOGEE,PERIGEE,DECAYED
53735.0,STARLINK-4618,PAYLOAD,2024-01-09 15:04:48,15.08901752,0.0002666,53.2161,210.66,98.3884,261.741,0.00055306,8.54e-05,0.0,0 STARLINK-4618,1 53735U 22107AM  24009.62833718  .00008540  00000-0  55306-3 0  9997,2 53735  53.2161 210.6600 0002666  98.3884 261.7410 15.08901752 75177,6917.692,95.434,541.401,537.712,0.0
53735.0,STARLINK-4618,PAYLOAD,2024-01-09 19:51:01,15.08844594,0.0001611,53.2161,209.7677,61.8482,298.2673,5.9246e-05,6.55e-06,0.0,0 STARLINK-4618,1 53735U 22107AM  24009.82709952  .00000655  00000-0  59246-4 0  9998,2 53735  53.2161 209.7677 0001611  61.8482 298.2673 15.08844594 74577,6917.866,95.437,540.846,538.617,0.0
53735.0,STARLINK-4618,PAYLOAD,2024-01-09 23:01:47,15.08846963,0.0001347,53.216,209.1744,92.7356,267.3791,6.5322e-05,7.52e-06,0.0,0 STARLINK-4618,1 53735U 22107AM  24009.95957582  .00000752  00000-0  65322-4 0  9996,2 53735  53.2160 209.1744 0001347  92.7356 267.3791 15.08846963 75227,6917.859,95.437,540.656,538.792,0.0
53735.0,STARLINK-4618,PAYLOAD,2024-01-11 13:11:02,15.08859812,0.0001395,53.2161,202.0343,96.5943,263.5208,-0.00042759,-7.09e-05,0.0,0 STARLINK-4618,1 53735U 22107AM  24011.54933898 -.00007090  00000-0 -42759-3 0  9990,2 53735  53.2161 202.0343 0001395  96.5943 263.5208 15.08859812 75466,6917.82,95.436,540.65,538.72,0.0
53735.0,STARLINK-4618,PAYLOAD,2024-01-11 19:32:35,15.08841101,0.0001237,53.2142,200.844,99.4924,260.6208,-0.00047807,-7.888e-05,0.0,0 STARLINK-4618,1 53735U 22107AM  24011.81429570 -.00007888  00000-0 -47807-3 0  9991,2 53735  53.2142 200.8440 0001237  99.4924 260.6208 15.08841101 74879,6917.877,95.437,540.598,538.886,0.0
53735.0,STARLINK-4618,PAYLOAD,2024-01-12 11:26:27,15.08825142,0.0001122,53.2146,197.8695,105.4626,254.649,5.8352e-05,6.41e-06,0.0,0 STARLINK-4618,1 53735U 22107AM  24012.47670938  .00000641  00000-0  58352-4 0  9996,2 53735  53.2146 197.8695 0001122 105.4626 254.6490 15.08825142 74974,6917.926,95.438,540.567,539.015,0.0
53735.0,STARLINK-4618,PAYLOAD,2024-01-12 19:23:23,15.08837467,0.0001111,53.2142,196.3842,95.3479,264.764,-7.5971e-05,-1.497e-05,0.0,0 STARLINK-4618,1 53735U 22107AM  24012.80790577 -.00001497  00000-0 -75971-4 0  9993,2 53735  53.2142 196.3842 0001111  95.3479 264.7640 15.08837467 75028,6917.888,95.438,540.522,538.985,0.0
53735.0,STARLINK-4618,PAYLOAD,2024-01-13 20:49:33,15.08840974,0.0001107,53.2145,191.6264,95.0163,265.0955,0.00028549,4.259e-05,0.0,0 STARLINK-4618,1 53735U 22107AM  24013.86775127  .00004259  00000-0  28549-3 0  9999,2 53735  53.2145 191.6264 0001107  95.0163 265.0955 15.08840974 75186,6917.877,95.437,540.508,538.977,0.0
53735.0,STARLINK-4618,PAYLOAD,2024-01-14 11:08:02,15.08838509,0.0001119,53.2142,188.9498,99.9535,260.1583,0.00011471,1.538e-05,0.0,0 STARLINK-4618,1 53735U 22107AM  24014.46391298  .00001538  00000-0  11471-3 0  9992,2 53735  53.2142 188.9498 0001119  99.9535 260.1583 15.08838509 75904,6917.885,95.438,540.524,538.976,0.0
53735.0,STARLINK-4618,PAYLOAD,2024-01-14 19:04:57,15.08843678,0.0001113,53.2145,187.4628,98.4132,261.6986,0.00018305,2.627e-05,0.0,0 STARLINK-4618,1 53735U 22107AM  24014.79511170  .00002627  00000-0  18305-3 0  9994,2 53735  53.2145 187.4628 0001113  98.4132 261.6986 15.08843678 75958,6917.869,95.437,540.504,538.964,0.0
53735.0,STARLINK-4618,PAYLOAD,2024-01-15 10:58:48,15.08846063,0.0001119,53.2143,184.4893,105.9185,254.1931,3.3265e-05,2.42e-06,0.0,0 STARLINK-4618,1 53735U 22107AM  24015.45751117  .00000242  00000-0  33265-4 0  9999,2 53735  53.2143 184.4893 0001119 105.9185 254.1931 15.08846063 76055,6917.862,95.437,540.501,538.953,0.0
53735.0,STARLINK-4618,PAYLOAD,2024-01-15 17:20:21,15.0884504,0.0001054,53.2143,183.2999,101.4465,258.6645,0.0001064,1.406e-05,0.0,0 STARLINK-4618,1 53735U 22107AM  24015.72247096  .00001406  00000-0  10640-3 0  9999,2 53735  53.2143 183.2999 0001054 101.4465 258.6645 15.08845040 76098,6917.865,95.437,540.459,539.001,0.0
53735.0,STARLINK-4618,PAYLOAD,2024-01-16 17:11:08,15.08858078,0.0001348,53.2145,178.8397,70.9638,289.15,0.00034737,5.247e-05,0.0,0 STARLINK-4618,1 53735U 22107AM  24016.71606793  .00005247  00000-0  34737-3 0  9992,2 53735  53.2145 178.8397 0001348  70.9638 289.1500 15.08858078 76241,6917.825,95.436,540.623,538.758,0.0
53735.0,STARLINK-4618,PAYLOAD,2024-01-17 09:05:00,15.08840907,0.0001139,53.2143,175.8668,86.8679,273.2444,8.4258e-05,1.053e-05,0.0,0 STARLINK-4618,1 53735U 22107AM  24017.37847305  .00001053  00000-0  84258-4 0  9996,2 53735  53.2143 175.8668 0001139  86.8679 273.2444 15.08840907 75710,6917.878,95.437,540.531,538.955,0.0
53735.0,STARLINK-4618,PAYLOAD,2024-01-17 13:51:10,15.08828802,0.0001215,53.2144,174.9755,85.6213,274.4918,-9.7628e-05,-1.841e-05,0.0,0 STARLINK-4618,1 53735U 22107AM  24017.57719945 -.00001841  00000-0 -97628-4 0  9998,2 53735  53.2144 174.9755 0001215  85.6213 274.4918 15.08828802 76376,6917.915,95.438,540.62,538.939,0.0
53735.0,STARLINK-4618,PAYLOAD,2024-01-17 17:01:56,15.0883038,0.0001188,53.2152,174.3803,90.6223,269.4905,-3.2929e-05,-8.12e-06,0.0,0 STARLINK-4618,1 53735U 22107AM  24017.70968252 -.00000812  00000-0 -32929-4 0  9990,2 53735  53.2152 174.3803 0001188  90.6223 269.4905 15.08830380 75765,6917.91,95.438,540.597,538.953,0.0
53735.0,STARLINK-4618,PAYLOAD,2024-01-18 13:41:56,15.08848992,0.0001381,53.2158,170.5135,76.9693,283.1454,-4.599e-05,-1.02e-05,0.0,0 STARLINK-4618,1 53735U 22107AM  24018.57079609 -.00001020  00000-0 -45990-4 0  9999,2 53735  53.2158 170.5135 0001381  76.9693 283.1454 15.08848992 75894,6917.853,95.437,540.673,538.763,0.0
53735.0,STARLINK-4618,PAYLOAD,2024-01-18 16:52:42,15.08847772,0.000136,53.2151,169.9179,81.4313,278.6833,1.5862e-05,-3.5e-07,0.0,0 STARLINK-4618,1 53735U 22107AM  24018.70327393 -.00000035  00000-0  15862-4 0  9999,2 53735  53.2151 169.9179 0001360  81.4313 278.6833 15.08847772 76542,6917.857,95.437,540.662,538.781,0.0
53735.0,STARLINK-4618,PAYLOAD,2024-01-19 10:21:57,15.08837137,0.0001319,53.2149,166.6472,94.1604,265.9539,0.00024178,3.562e-05,0.0,0 STARLINK-4618,1 53735U 22107AM  24019.43192031  .00003562  00000-0  24178-3 0  9995,2 53735  53.2149 166.6472 0001319  94.1604 265.9539 15.08837137 76026,6917.889,95.438,540.667,538.842,0.0
53735.0,STARLINK-4618,PAYLOAD,2024-01-19 13:32:44,15.08839095,0.0001304,53.2148,166.0523,93.1412,266.973,0.00025051,3.701e-05,0.0,0 STARLINK-4618,1 53735U 22107AM  24019.56439969  .00003701  00000-0  25051-3 0  9999,2 53735  53.2148 166.0523 0001304  93.1412 266.9730 15.08839095 76676,6917.883,95.438,540.65,538.846,0.0
53735.0,STARLINK-4618,PAYLOAD,2024-01-19 16:43:30,15.08844399,0.0001303,53.2148,165.4574,94.991,265.123,0.00031922,4.797e-05,0.0,0 STARLINK-4618,1 53735U 22107AM  24019.69687766  .00004797  00000-0  31922-3 0  9993,2 53735  53.2148 165.4574 0001303  94.9910 265.1230 15.08844399 76697,6917.867,95.437,540.633,538.831,0.0
53735.0,STARLINK-4618,PAYLOAD,2024-01-20 14:58:55,15.08830873,0.000141,53.2155,161.293,98.7102,261.405,-8.1076e-05,-1.578e-05,0.0,0 STARLINK-4618,1 53735U 22107AM  24020.62424806 -.00001578  00000-0 -81076-4 0  9994,2 53735  53.2155 161.2930 0001410  98.7102 261.4050 15.08830873 76836,6917.908,95.438,540.749,538.798,0.0
53735.0,STARLINK-4618,PAYLOAD,2024-01-20 19:45:04,15.08831334,0.0001422,53.2155,160.4018,86.7282,273.3873,-5.986e-05,-1.24e-05,0.0,0 STARLINK-4618,1 53735U 22107AM  24020.82296961 -.00001240  00000-0 -59860-4 0  9997,2 53735  53.2155 160.4018 0001422  86.7282 273.3873 15.08831334 76235,6917.907,95.438,540.756,538.788,0.0
53735.0,STARLINK-4618,PAYLOAD,2024-01-21 13:14:18,15.08851188,0.0001284,53.2147,157.1335,93.6394,266.4745,0.0002608,3.866e-05,0.0,0 STARLINK-4618,1 53735U 22107AM  24021.55160026  .00003866  00000-0  26080-3 0  9991,2 53735  53.2147 157.1335 0001284  93.6394 266.4745 15.08851188 76340,6917.846,95.437,540.599,538.823,0.0
53735.0,STARLINK-4618,PAYLOAD,2024-01-21 16:25:04,15.08859351,0.0001351,53.215,156.5381,86.7235,273.3912,0.00039915,6.074e-05,0.0,0 STARLINK-4618,1 53735U 22107AM  24021.68407703  .00006074  00000-0  39915-3 0  9996,2 53735  53.2150 156.5381 0001351  86.7235 273.3912 15.08859351 76994,6917.821,95.436,540.621,538.752,0.0
53735.0,STARLINK-4618,PAYLOAD,2024-01-22 16:15:51,15.08849907,0.000144,53.2149,152.0758,80.1252,279.9902,0.00025202,3.726e-05,0.0,0 STARLINK-4618,1 53735U 22107AM  24022.67768231  .00003726  00000-0  25202-3 0  9997,2 53735  53.2149 152.0758 0001440  80.1252 279.9902 15.08849907 76512,6917.85,95.437,540.711,538.719,0.0
53735.0,STARLINK-4618,PAYLOAD,2024-01-23 14:31:15,15.08849207,0.0001535,53.215,147.9126,77.6643,282.4521,0.00017569,2.51e-05,0.0,0 STARLINK-4618,1 53735U 22107AM  24023.60504043  .00002510  00000-0  17569-3 0  9997,2 53735  53.2150 147.9126 0001535  77.6643 282.4521 15.08849207 76650,6917.852,95.437,540.779,538.655,0.0
53735.0,STARLINK-4618,PAYLOAD,2024-01-24 11:11:16,15.08836383,0.0001546,53.2151,144.0505,96.5994,263.5174,0.00017907,2.563e-05,0.0,0 STARLINK-4618,1 53735U 22107AM  24024.46616608  .00002563  00000-0  17907-3 0  9997,2 53735  53.2151 144.0505 0001546  96.5994 263.5174 15.08836383 76780,6917.891,95.438,540.826,538.687,0.0
53735.0,STARLINK-4618,PAYLOAD,2024-01-24 14:22:03,15.08832496,0.0001434,53.2144,143.4604,77.1345,282.9808,0.00017352,2.474e-05,0.0,0 STARLINK-4618,1 53735U 22107AM  24024.59864963  .00002474  00000-0  17352-3 0  9995,2 53735  53.2144 143.4604 0001434  77.1345 282.9808 15.08832496 77439,6917.903,95.438,540.76,538.776,0.0
53735.0,STARLINK-4618,PAYLOAD,2024-01-25 14:12:50,15.0884094,0.0001693,53.2168,139.001,113.3732,246.7438,4.9933e-05,5.07e-06,0.0,0 STARLINK-4618,1 53735U 22107AM  24025.59224816  .00000507  00000-0  49933-4 0  9999,2 53735  53.2168 139.0010 0001693 113.3732 246.7438 15.08840940 77583,6917.878,95.437,540.914,538.571,0.0
